STARLINK-5801           
1 56005U 23042V   24306.09760910  .00000856  00000+0  78439-4 0  9997
2 56005  43.0041 217.9529 0001912 242.8290 117.2358 15.02538598 88666
STARLINK-5794           
1 56006U 23042W   24306.48204591  .00000693  00000+0  66325-4 0  9999
2 56006  43.0019 215.6702 0001102 281.2800  78.7919 15.02539000 88725
STARLINK-5806           
1 56007U 23042X   24306.48537384  .00004141  00000+0  32140-3 0  9998
2 56007  43.0025 215.6998 0002337 237.0864 122.9754 15.02541197 88729
STARLINK-5803           
1 56008U 23042Y   24306.47649530  .00003891  00000+0  30292-3 0  9992
2 56008  43.0076 215.6333 0002626 255.8060 104.2491 15.02542810 88720
STARLINK-5964           
1 56009U 23042Z   24306.48315916  .00004312  00000+0  33403-3 0  9998
2 56009  43.0063 215.6831 0001485 269.2321  90.8351 15.02542582 88722
STARLINK-5968           
1 56010U 23042AA  24306.47871637  .00003649  00000+0  28499-3 0  9997
2 56010  43.0025 215.6502 0002452 251.2226 108.8350 15.02542229 88724
STARLINK-5936           
1 56011U 23042AB  24306.41039844  .00001408  00000+0  11930-3 0  9991
2 56011  43.0005 203.8508 0001432 271.2243  88.8435 15.02534498 88850
STARLINK-5940           
1 56012U 23042AC  24306.41595517  .00002899  00000+0  22956-3 0  9991
2 56012  43.0022 203.8886 0000939 277.9513  82.1223 15.02534615 88856
STARLINK-5941           
1 56013U 23042AD  24306.47538396  .00002158  00000+0  17480-3 0  9994
2 56013  43.0051 215.6204 0002371 262.0196  98.0378 15.02541743 88721
STARLINK-5942           
1 56014U 23042AE  24306.40928612  .00003617  00000+0  28260-3 0  9991
2 56014  43.0009 203.8425 0001669 274.0717  85.9934 15.02543571 88858
STARLINK-5939           
1 56015U 23042AF  24306.41261547  .00018605  00000+0  13881-2 0  9995
2 56015  43.0034 203.8621 0001416 268.2435  91.8245 15.02551485 88851
STARLINK-5943           
1 56016U 23042AG  24306.12671563 -.00002020  00000+0 -13444-3 0  9999
2 56016  43.0047 205.1565 0001679 273.8739  86.1912 15.02552015 88812
STARLINK-5934           
1 56017U 23042AH  24306.40373504  .00003361  00000+0  26371-3 0  9995
2 56017  43.0052 203.7972 0001570 278.0556  82.0109 15.02540869 88850
STARLINK-5945           
1 56018U 23042AJ  24306.12783768 -.00000192  00000+0  83032-6 0  9992
2 56018  43.0029 205.1638 0001663 260.9705  99.0949 15.02530063 88810
STARLINK-5949           
1 56019U 23042AK  24306.40707130 -.00000040  00000+0  12109-4 0  9990
2 56019  43.0015 203.8220 0000910 296.3706  63.7043 15.02534278 88855
STARLINK-5912           
1 56020U 23042AL  24306.13116856  .00000782  00000+0  72989-4 0  9995
2 56020  42.9987 205.1908 0001480 249.7781 110.2903 15.02532987 88813
STARLINK-5907           
1 56021U 23042AM  24306.13449656  .00000652  00000+0  63318-4 0  9995
2 56021  43.0024 205.2160 0001249 285.3641  74.7063 15.02537189 88813
STARLINK-5783           
1 56022U 23042AN  24306.45023519  .00001741  00000+0  14390-3 0  9992
2 56022  43.0035 203.2844 0001289 273.3666  86.7029 15.02542966 88860
STARLINK-5771           
1 56023U 23042AP  24306.12339703  .00001035  00000+0  91687-4 0  9993
2 56023  43.0016 205.1307 0001297 270.7114  89.3580 15.02539587 88814
STARLINK-5772           
1 56024U 23042AQ  24306.44024535  .00001509  00000+0  12673-3 0  9996
2 56024  43.0017 203.2050 0001337 265.2645  94.8044 15.02535199 88869
STARLINK-5766           
1 56025U 23042AR  24306.41705686  .00001167  00000+0  10143-3 0  9997
2 56025  43.0015 203.8852 0001254 263.3513  96.7186 15.02535531 88852
STARLINK-5770           
1 56026U 23042AS  24306.44912555  .00025777  00000+0  19155-2 0  9990
2 56026  43.0032 203.2755 0001674 268.7525  91.3125 15.02550185 88863
STARLINK-5777           
1 56027U 23042AT  24306.45244680  .00008685  00000+0  65732-3 0  9991
2 56027  43.0021 203.3004 0001434 274.6364  85.4315 15.02527496 88865
STARLINK-5779           
1 56028U 23042AU  24306.43580693  .00030562  00000+0  22672-2 0  9991
2 56028  43.0021 203.1750 0001546 272.9601  87.1065 15.02542365 88864
STARLINK-5774           
1 56029U 23042AV  24306.44580540  .00000403  00000+0  44951-4 0  9991
2 56029  43.0055 203.2467 0001963 243.4003 116.6638 15.02519786 88865
STARLINK-5781           
1 56030U 23042AW  24306.43247622  .00013280  00000+0  99583-3 0  9990
2 56030  43.0020 203.1489 0001299 257.4200 102.6497 15.02553560 88864
STARLINK-5785           
1 56031U 23042AX  24306.43913461  .00004222  00000+0  32742-3 0  9992
2 56031  43.0022 203.1955 0001816 255.3755 104.6886 15.02535652 88868
STARLINK-5786           
1 56032U 23042AY  24306.42360064  .00004037  00000+0  31369-3 0  9995
2 56032  43.0037 203.0828 0001303 251.8959 108.1741 15.02541113 88869
STARLINK-5784           
1 56033U 23042AZ  24306.42691164  .00002320  00000+0  18666-3 0  9992
2 56033  43.0025 203.1041 0001187 271.4073  88.6634 15.02549022 88860
STARLINK-5782           
1 56034U 23042BA  24306.42248541  .00002423  00000+0  19434-3 0  9998
2 56034  43.0023 203.0739 0001121 262.8142  97.2573 15.02539156 88866
STARLINK-5792           
1 56035U 23042BB  24306.43025664  .00000728  00000+0  68973-4 0  9998
2 56035  43.0010 203.1285 0001469 264.6194  95.4481 15.02536051 88861
STARLINK-5790           
1 56036U 23042BC  24306.42581084 -.00002186  00000+0 -14674-3 0  9991
2 56036  43.0041 203.0921 0001784 262.5953  97.4687 15.02542036 88862
STARLINK-5758           
1 56037U 23042BD  24306.38067346  .00001844  00000+0  15156-3 0  9991
2 56037  43.0060 190.5575 0002139 262.2224  97.8375 15.02541864 89005
STARLINK-5793           
1 56038U 23042BE  24306.42027018  .00000553  00000+0  55987-4 0  9992
2 56038  43.0026 203.0549 0001189 261.6018  98.4689 15.02533886 88860
STARLINK-5795           
1 56039U 23042BF  24306.04384981  .00001504  00000+0  12637-3 0  9997
2 56039  43.0034 192.3335 0001195 273.7253  86.3453 15.02536102 88954
STARLINK-5798           
1 56040U 23042BG  24306.37401809  .00003983  00000+0  30971-3 0  9998
2 56040  43.0036 190.5082 0001353 262.1424  97.9265 15.02542764 89002
STARLINK-5800           
1 56041U 23042BH  24306.37181393 -.00008989  00000+0 -65228-3 0  9998
2 56041  42.9988 190.4956 0000943 350.5494   9.5330 15.02476782 89007
STARLINK-6102           
1 56093U 23046A   24306.58334491  .01399676  00000+0  79797-1 0  9990
2 56093  43.0033 318.6477 0001428 283.8966  40.7233 15.08953209  5849
STARLINK-6109           
1 56094U 23046B   24306.38685124  .00001121  00000+0  98035-4 0  9994
2 56094  43.0029 319.6641 0001220 256.3890 103.6816 15.02535126 87855
STARLINK-6090           
1 56095U 23046C   24306.45997049 -.00008094  00000+0 -58486-3 0  9998
2 56095  43.0048 319.3551 0001393 284.8472  75.2216 15.02529095 87864
STARLINK-6089           
1 56096U 23046D   24306.38462785  .00002822  00000+0  22394-3 0  9995
2 56096  43.0061 319.6486 0001520 276.0199  84.0470 15.02528931 87858
STARLINK-6077           
1 56097U 23046E   24306.58397532 -.00000078  00000+0  93245-5 0  9992
2 56097  43.0034 266.5040 0001164 271.2975  88.7734 15.02536937 88487
STARLINK-6088           
1 56098U 23046F   24306.45665555  .00004338  00000+0  33595-3 0  9994
2 56098  43.0057 319.3282 0001390 265.3752  94.6931 15.02540576 87866
STARLINK-6093           
1 56099U 23046G   24306.44555291  .00000581  00000+0  58049-4 0  9997
2 56099  43.0047 319.2459 0001649 286.8513  73.2149 15.02540080 87865
STARLINK-6076           
1 56100U 23046H   24306.44111384  .00001414  00000+0  11975-3 0  9993
2 56100  43.0045 319.2119 0001273 261.1386  98.9312 15.02532407 87866
STARLINK-6095           
1 56101U 23046J   24306.44000814  .00000417  00000+0  45925-4 0  9994
2 56101  43.0041 319.2015 0001023 258.4429 101.6299 15.02537073 87868
STARLINK-6075           
1 56102U 23046K   24306.38067767  .00032065  00000+0  23570-2 0  9992
2 56102  43.0031 319.6202 0001186 261.0019  99.0689 15.02869978 87859
STARLINK-6096           
1 56103U 23046L   24306.37019542  .00008069  00000+0  61152-3 0  9996
2 56103  43.0029 319.5378 0001249 267.4776  92.5923 15.02548513 87858
STARLINK-6062           
1 56104U 23046M   24306.43778045  .00005204  00000+0  39995-3 0  9992
2 56104  43.0030 319.1853 0001335 244.4028 115.6676 15.02541192 87865
STARLINK-6066           
1 56105U 23046N   24306.42448350  .00002340  00000+0  18820-3 0  9997
2 56105  43.0057 319.0837 0001242 302.8019  57.2703 15.02537845 87864
STARLINK-6078           
1 56106U 23046P   24306.09873088  .00004511  00000+0  34873-3 0  9999
2 56106  43.0036 320.9412 0001410 259.1328 100.9355 15.02542495 87817
STARLINK-6030           
1 56107U 23046Q   24306.35243983  .00001805  00000+0  14863-3 0  9994
2 56107  43.0044 319.4038 0000829 289.1060  70.9693 15.02539343 87856
STARLINK-6081           
1 56108U 23046R   24306.36687047  .00007318  00000+0  55617-3 0  9996
2 56108  43.0024 319.5064 0001248 262.5138  97.5563 15.02542157 87850
STARLINK-6083           
1 56109U 23046S   24306.35576967  .00000459  00000+0  49054-4 0  9992
2 56109  43.0080 319.4262 0001800 268.7962  91.2674 15.02533291 87852
STARLINK-6082           
1 56110U 23046T   24306.09540788  .00000616  00000+0  60652-4 0  9999
2 56110  42.9998 320.9125 0000832 246.2702 113.8054 15.02534415 87810
STARLINK-6084           
1 56111U 23046U   24306.34133739  .00000107  00000+0  23019-4 0  9993
2 56111  43.0059 319.3182 0001147 264.1440  95.9272 15.02539374 87859
STARLINK-6080           
1 56112U 23046V   24306.34688867  .00002586  00000+0  20645-3 0  9995
2 56112  43.0064 319.3608 0001433 269.5166  90.5512 15.02536533 87853
STARLINK-6113           
1 56113U 23046W   24306.46985487  .00001423  00000+0  12032-3 0  9997
2 56113  43.0011 318.5656 0001101 269.9933  90.0783 15.02549593 87875
STARLINK-6103           
1 56114U 23046X   24306.35021760  .00000756  00000+0  70990-4 0  9997
2 56114  43.0035 319.3837 0001014 280.0447  80.0281 15.02538011 87852
